CCSDS_OMM_VERS = 2.0
CREATION_DATE  = 
ORIGINATOR     = 

OBJECT_NAME    = PROGRESS-MS 32
OBJECT_ID      = 2025-204A
CENTER_NAME    = EARTH
REF_FRAME      = TEME
TIME_SYSTEM    = UTC
MEAN_ELEMENT_THEORY = SGP/SGP4

EPOCH          = 2025-11-29T02:59:56.376384
MEAN_MOTION    = 15.49180644
ECCENTRICITY   = .00037368
INCLINATION    = 51.6312
RA_OF_ASC_NODE = 209.8765
ARG_OF_PERICENTER = 181.3383
MEAN_ANOMALY   = 178.7596

EPHEMERIS_TYPE = 0
CLASSIFICATION_TYPE = U
NORAD_CAT_ID   = 65586
ELEMENT_SET_NO = 999
REV_AT_EPOCH   = 27
BSTAR          = .1679519E-3
MEAN_MOTION_DOT = .8872E-4
MEAN_MOTION_DDOT = 0

CCSDS_OMM_VERS = 2.0
CREATION_DATE  = 
ORIGINATOR     = 

OBJECT_NAME    = CYGNUS NG-23
OBJECT_ID      = 2025-208A
CENTER_NAME    = EARTH
REF_FRAME      = TEME
TIME_SYSTEM    = UTC
MEAN_ELEMENT_THEORY = SGP/SGP4

EPOCH          = 2025-11-29T02:59:56.376384
MEAN_MOTION    = 15.49180644
ECCENTRICITY   = .00037368
INCLINATION    = 51.6312
RA_OF_ASC_NODE = 209.8765
ARG_OF_PERICENTER = 181.3383
MEAN_ANOMALY   = 178.7596

EPHEMERIS_TYPE = 0
CLASSIFICATION_TYPE = U
NORAD_CAT_ID   = 65616
ELEMENT_SET_NO = 999
REV_AT_EPOCH   = 22
BSTAR          = .1679519E-3
MEAN_MOTION_DOT = .8872E-4
MEAN_MOTION_DDOT = 0

CCSDS_OMM_VERS = 2.0
CREATION_DATE  = 
ORIGINATOR     = 

OBJECT_NAME    = DRAGONFLY
OBJECT_ID      = 1998-067XH
CENTER_NAME    = EARTH
REF_FRAME      = TEME
TIME_SYSTEM    = UTC
MEAN_ELEMENT_THEORY = SGP/SGP4

EPOCH          = 2025-11-30T01:36:53.129376
MEAN_MOTION    = 15.67290907
ECCENTRICITY   = .0006451
INCLINATION    = 51.6265
RA_OF_ASC_NODE = 200.4173
ARG_OF_PERICENTER = 201.2290
MEAN_ANOMALY   = 158.8439

EPHEMERIS_TYPE = 0
CLASSIFICATION_TYPE = U
NORAD_CAT_ID   = 65729
ELEMENT_SET_NO = 999
REV_AT_EPOCH   = 1117
BSTAR          = .12301E-2
MEAN_MOTION_DOT = .136962E-2
MEAN_MOTION_DDOT = 0

CCSDS_OMM_VERS = 2.0
CREATION_DATE  = 
ORIGINATOR     = 

OBJECT_NAME    = 1998-067XJ
OBJECT_ID      = 1998-067XJ
CENTER_NAME    = EARTH
REF_FRAME      = TEME
TIME_SYSTEM    = UTC
MEAN_ELEMENT_THEORY = SGP/SGP4

EPOCH          = 2025-11-30T00:49:22.590336
MEAN_MOTION    = 16.04584786
ECCENTRICITY   = .0011481
INCLINATION    = 51.6143
RA_OF_ASC_NODE = 195.6214
ARG_OF_PERICENTER = 220.5612
MEAN_ANOMALY   = 139.4546

EPHEMERIS_TYPE = 0
CLASSIFICATION_TYPE = U
NORAD_CAT_ID   = 65730
ELEMENT_SET_NO = 999
REV_AT_EPOCH   = 1123
BSTAR          = .27121E-2
MEAN_MOTION_DOT = .1821158E-1
MEAN_MOTION_DDOT = .22983E-2

CCSDS_OMM_VERS = 2.0
CREATION_DATE  = 
ORIGINATOR     = 

OBJECT_NAME    = 1998-067XK
OBJECT_ID      = 1998-067XK
CENTER_NAME    = EARTH
REF_FRAME      = TEME
TIME_SYSTEM    = UTC
MEAN_ELEMENT_THEORY = SGP/SGP4

EPOCH          = 2025-11-30T00:29:54.193632
MEAN_MOTION    = 15.62876971
ECCENTRICITY   = .0005993
INCLINATION    = 51.6290
RA_OF_ASC_NODE = 201.6160
ARG_OF_PERICENTER = 174.9051
MEAN_ANOMALY   = 185.2005

EPHEMERIS_TYPE = 0
CLASSIFICATION_TYPE = U
NORAD_CAT_ID   = 65731
ELEMENT_SET_NO = 999
REV_AT_EPOCH   = 1115
BSTAR          = .94044E-3
MEAN_MOTION_DOT = .87103E-3
MEAN_MOTION_DDOT = 0

CCSDS_OMM_VERS = 2.0
CREATION_DATE  = 
ORIGINATOR     = 

OBJECT_NAME    = RSP-03
OBJECT_ID      = 1998-067XL
CENTER_NAME    = EARTH
REF_FRAME      = TEME
TIME_SYSTEM    = UTC
MEAN_ELEMENT_THEORY = SGP/SGP4

EPOCH          = 2025-11-30T01:05:34.522080
MEAN_MOTION    = 15.64963038
ECCENTRICITY   = .0006911
INCLINATION    = 51.6275
RA_OF_ASC_NODE = 201.0258
ARG_OF_PERICENTER = 178.3876
MEAN_ANOMALY   = 181.7143

EPHEMERIS_TYPE = 0
CLASSIFICATION_TYPE = U
NORAD_CAT_ID   = 65732
ELEMENT_SET_NO = 999
REV_AT_EPOCH   = 1117
BSTAR          = .11085E-2
MEAN_MOTION_DOT = .111988E-2
MEAN_MOTION_DDOT = 0

CCSDS_OMM_VERS = 2.0
CREATION_DATE  = 
ORIGINATOR     = 

OBJECT_NAME    = GHS-01
OBJECT_ID      = 1998-067XM
CENTER_NAME    = EARTH
REF_FRAME      = TEME
TIME_SYSTEM    = UTC
MEAN_ELEMENT_THEORY = SGP/SGP4

EPOCH          = 2025-11-30T00:53:56.116320
MEAN_MOTION    = 15.69100613
ECCENTRICITY   = .0006879
INCLINATION    = 51.6289
RA_OF_ASC_NODE = 200.2229
ARG_OF_PERICENTER = 199.9405
MEAN_ANOMALY   = 160.1324

EPHEMERIS_TYPE = 0
CLASSIFICATION_TYPE = U
NORAD_CAT_ID   = 65733
ELEMENT_SET_NO = 999
REV_AT_EPOCH   = 1118
BSTAR          = .13783E-2
MEAN_MOTION_DOT = .165964E-2
MEAN_MOTION_DDOT = 0

CCSDS_OMM_VERS = 2.0
CREATION_DATE  = 
ORIGINATOR     = 

OBJECT_NAME    = YOTSUBA-KULOVER
OBJECT_ID      = 1998-067XN
CENTER_NAME    = EARTH
REF_FRAME      = TEME
TIME_SYSTEM    = UTC
MEAN_ELEMENT_THEORY = SGP/SGP4

EPOCH          = 2025-11-29T01:16:05.255040
MEAN_MOTION    = 15.57223707
ECCENTRICITY   = .00023732
INCLINATION    = 51.6293
RA_OF_ASC_NODE = 208.6482
ARG_OF_PERICENTER = 148.1592
MEAN_ANOMALY   = 211.9543

EPHEMERIS_TYPE = 0
CLASSIFICATION_TYPE = U
NORAD_CAT_ID   = 65941
ELEMENT_SET_NO = 999
REV_AT_EPOCH   = 772
BSTAR          = .82249408E-3
MEAN_MOTION_DOT = .61013E-3
MEAN_MOTION_DDOT = 0

CCSDS_OMM_VERS = 2.0
CREATION_DATE  = 
ORIGINATOR     = 

OBJECT_NAME    = BOTAN
OBJECT_ID      = 1998-067XP
CENTER_NAME    = EARTH
REF_FRAME      = TEME
TIME_SYSTEM    = UTC
MEAN_ELEMENT_THEORY = SGP/SGP4

EPOCH          = 2025-11-29T01:59:57.907104
MEAN_MOTION    = 15.59576719
ECCENTRICITY   = .00046725
INCLINATION    = 51.6294
RA_OF_ASC_NODE = 208.1026
ARG_OF_PERICENTER = 152.2656
MEAN_ANOMALY   = 207.8587

EPHEMERIS_TYPE = 0
CLASSIFICATION_TYPE = U
NORAD_CAT_ID   = 65942
ELEMENT_SET_NO = 999
REV_AT_EPOCH   = 773
BSTAR          = .11005509E-2
MEAN_MOTION_DOT = .89783E-3
MEAN_MOTION_DDOT = 0

CCSDS_OMM_VERS = 2.0
CREATION_DATE  = 
ORIGINATOR     = 

OBJECT_NAME    = E-KAGAKU-1
OBJECT_ID      = 1998-067XQ
CENTER_NAME    = EARTH
REF_FRAME      = TEME
TIME_SYSTEM    = UTC
MEAN_ELEMENT_THEORY = SGP/SGP4

EPOCH          = 2025-11-28T20:38:30.972480
MEAN_MOTION    = 15.57173177
ECCENTRICITY   = .00038111
INCLINATION    = 51.6308
RA_OF_ASC_NODE = 209.6132
ARG_OF_PERICENTER = 129.5629
MEAN_ANOMALY   = 230.5700

EPHEMERIS_TYPE = 0
CLASSIFICATION_TYPE = U
NORAD_CAT_ID   = 65943
ELEMENT_SET_NO = 999
REV_AT_EPOCH   = 769
BSTAR          = .79009998E-3
MEAN_MOTION_DOT = .5847E-3
MEAN_MOTION_DDOT = 0

CCSDS_OMM_VERS = 2.0
CREATION_DATE  = 
ORIGINATOR     = 

OBJECT_NAME    = HRC MONOBLOCK CAMERA
OBJECT_ID      = 1998-067XR
CENTER_NAME    = EARTH
REF_FRAME      = TEME
TIME_SYSTEM    = UTC
MEAN_ELEMENT_THEORY = SGP/SGP4

EPOCH          = 2025-11-30T01:01:54.378336
MEAN_MOTION    = 15.52962161
ECCENTRICITY   = .0004565
INCLINATION    = 51.6304
RA_OF_ASC_NODE = 204.7561
ARG_OF_PERICENTER = 133.5581
MEAN_ANOMALY   = 226.5789

EPHEMERIS_TYPE = 0
CLASSIFICATION_TYPE = U
NORAD_CAT_ID   = 66052
ELEMENT_SET_NO = 999
REV_AT_EPOCH   = 686
BSTAR          = .61067E-3
MEAN_MOTION_DOT = .38473E-3
MEAN_MOTION_DDOT = 0

CCSDS_OMM_VERS = 2.0
CREATION_DATE  = 
ORIGINATOR     = 

OBJECT_NAME    = HTV-X1
OBJECT_ID      = 2025-241A
CENTER_NAME    = EARTH
REF_FRAME      = TEME
TIME_SYSTEM    = UTC
MEAN_ELEMENT_THEORY = SGP/SGP4

EPOCH          = 2025-11-29T02:59:56.376384
MEAN_MOTION    = 15.49180644
ECCENTRICITY   = .00037368
INCLINATION    = 51.6312
RA_OF_ASC_NODE = 209.8765
ARG_OF_PERICENTER = 181.3383
MEAN_ANOMALY   = 178.7596

EPHEMERIS_TYPE = 0
CLASSIFICATION_TYPE = U
NORAD_CAT_ID   = 66174
ELEMENT_SET_NO = 999
REV_AT_EPOCH   = 51
BSTAR          = .1679519E-3
MEAN_MOTION_DOT = .8872E-4
MEAN_MOTION_DDOT = 0

